STARLINK-5331           
1 55280U 23010M   26068.36683990  .00000959  00000+0  88163-4 0  9994
2 55280  70.0003  45.4191 0003010 270.5317  89.5498 14.98330483172720
CENTAURI-7              
1 62708U 25009DD  26068.76467094  .00005487  00000+0  48082-3 0  9992
2 62708  97.7123 150.3372 0001973 133.1699 226.9688 14.97068612 62583
